NORAD_CAT_ID,OBJECT_NAME,OBJECT_TYPE,EPOCH,MEAN_MOTION,ECCENTRICITY,INCLINATION,RA_OF_ASC_NODE,ARG_OF_PERICENTER,MEAN_ANOMALY,BSTAR,MEAN_MOTION_DOT,MEAN_MOTION_DDOT,TLE_LINE0,TLE_LINE1,TLE_LINE2,SEMIMAJOR_AXIS,PERIOD,APOGEE,PERIGEE,DECAYED
53396.0,STARLINK-4524,PAYLOAD,2023-01-23 12:03:50,15.08839348,0.0002029999999999,53.215,207.1152,62.321000000000005,297.7988,9.6645e-05,1.25e-05,0.0,0 STARLINK-4524,1 53396U 22097J   23023.50267299  .00001250  00000-0  96645-4 0  9998,2 53396  53.2150 207.1152 0002030  62.3210 297.7988 15.08839348 25748,6917.882,95.438,541.1519999999999,538.3430000000001,0.0
53396.0,STARLINK-4524,PAYLOAD,2023-01-24 18:16:10,15.08846652,0.000206,53.2152,201.4645,66.0231,294.0976,0.00016805,2.388e-05,0.0,0 STARLINK-4524,1 53396U 22097J   23024.76123120  .00002388  00000-0  16805-3 0  9993,2 53396  53.2152 201.4645 0002060  66.0231 294.0976 15.08846652 25935,6917.86,95.437,541.15,538.3,0.0
53396.0,STARLINK-4524,PAYLOAD,2023-01-25 06:59:15,15.08840042,0.0001996999999999,53.2154,199.0856,67.2881,292.8323,0.00017385,2.48e-05,0.0,0 STARLINK-4524,1 53396U 22097J   23025.29115497  .00002480  00000-0  17385-3 0  9997,2 53396  53.2154 199.0856 0001997  67.2881 292.8323 15.08840042 26508,6917.88,95.438,541.127,538.364,0.0
53396.0,STARLINK-4524,PAYLOAD,2023-01-25 14:56:11,15.08837004,0.0001963,53.2155,197.5987,69.1613,290.9589,8.7189e-05,1.1e-05,0.0,0 STARLINK-4524,1 53396U 22097J   23025.62235693  .00001100  00000-0  87189-4 0  9993,2 53396  53.2155 197.5987 0001963  69.1613 290.9589 15.08837004 26062,6917.89,95.438,541.113,538.3969999999999,0.0
53396.0,STARLINK-4524,PAYLOAD,2023-01-25 18:06:57,15.08837637,0.0001915,53.2157,197.0037,70.3183,289.8016,0.00011421,1.53e-05,0.0,0 STARLINK-4524,1 53396U 22097J   23025.75483641  .00001530  00000-0  11421-3 0  9997,2 53396  53.2157 197.0037 0001915  70.3183 289.8016 15.08837637 26578,6917.888000000001,95.438,541.077,538.428,0.0
53396.0,STARLINK-4524,PAYLOAD,2023-01-26 14:46:58,15.0884115,0.0001916999999999,53.2159,193.1379,70.9133,289.2066,0.00010181,1.333e-05,0.0,0 STARLINK-4524,1 53396U 22097J   23026.61595435  .00001333  00000-0  10181-3 0  9991,2 53396  53.2159 193.1379 0001917  70.9133 289.2066 15.08841150 26708,6917.877,95.437,541.068,538.4159999999999,0.0
53396.0,STARLINK-4524,PAYLOAD,2023-01-26 19:33:07,15.0884682,0.000193,53.2159,192.2455,70.7683,289.3518,0.00016777,2.383e-05,0.0,0 STARLINK-4524,1 53396U 22097J   23026.81467102  .00002383  00000-0  16777-3 0  9995,2 53396  53.2159 192.2455 0001930  70.7683 289.3518 15.08846820 26247,6917.86,95.437,541.06,538.389,0.0
53396.0,STARLINK-4524,PAYLOAD,2023-01-27 14:37:46,15.0883171,0.0001742,53.2163,188.6756,93.3742,266.745,6.7024e-05,7.79e-06,0.0,0 STARLINK-4524,1 53396U 22097J   23027.60956150  .00000779  00000-0  67024-4 0  9998,2 53396  53.2163 188.6756 0001742  93.3742 266.7450 15.08831710 26362,6917.906,95.438,540.976,538.566,0.0
53396.0,STARLINK-4524,PAYLOAD,2023-01-27 16:13:09,15.08833153,0.0001715,53.2165,188.3795,84.2315,275.8872,7.5932e-05,9.2e-06,0.0,0 STARLINK-4524,1 53396U 22097J   23027.67580172  .00000920  00000-0  75932-4 0  9997,2 53396  53.2165 188.3795 0001715  84.2315 275.8872 15.08833153 26866,6917.901,95.438,540.953,538.58,0.0
53396.0,STARLINK-4524,PAYLOAD,2023-01-28 09:42:23,15.08836626,0.0001779,53.2167,185.1096,71.2629,288.8556,6.2147e-05,7.01e-06,0.0,0 STARLINK-4524,1 53396U 22097J   23028.40444132  .00000701  00000-0  62147-4 0  9995,2 53396  53.2167 185.1096 0001779  71.2629 288.8556 15.08836626 26974,6917.891,95.438,540.986,538.525,0.0
53396.0,STARLINK-4524,PAYLOAD,2023-01-28 20:50:04,15.0884963,0.0001703,53.2167,183.0279,78.0468,282.0715,7.3854e-05,8.88e-06,0.0,0 STARLINK-4524,1 53396U 22097J   23028.86811276  .00000888  00000-0  73854-4 0  9995,2 53396  53.2167 183.0279 0001703  78.0468 282.0715 15.08849630 26553,6917.851,95.437,540.894,538.538,0.0
53396.0,STARLINK-4524,PAYLOAD,2023-01-29 11:08:34,15.08833512,0.0001775,53.2164,180.3504,82.7077,277.4117,0.00011733,1.579e-05,0.0,0 STARLINK-4524,1 53396U 22097J   23029.46428383  .00001579  00000-0  11733-3 0  9990,2 53396  53.2164 180.3504 0001775  82.7077 277.4117 15.08833512 26644,6917.9,95.438,540.993,538.537,0.0
53396.0,STARLINK-4524,PAYLOAD,2023-01-29 19:05:29,15.08839771,0.0001662,53.217,178.8647,79.2866,280.8314,0.00011905,1.607e-05,0.0,0 STARLINK-4524,1 53396U 22097J   23029.79548085  .00001607  00000-0  11905-3 0  9991,2 53396  53.2170 178.8647 0001662  79.2866 280.8314 15.08839771 27183,6917.881,95.438,540.896,538.596,0.0
53396.0,STARLINK-4524,PAYLOAD,2023-01-30 12:34:44,15.08839392,0.0001646,53.2156,175.5938,82.2198,277.8981,0.0001043,1.372e-05,0.0,0 STARLINK-4524,1 53396U 22097J   23030.52412213  .00001372  00000-0  10430-3 0  9998,2 53396  53.2156 175.5938 0001646  82.2198 277.8981 15.08839392 26801,6917.882,95.438,540.886,538.609,0.0
53396.0,STARLINK-4524,PAYLOAD,2023-01-31 02:53:12,15.08844313,0.0001597,53.2157,172.9176,83.0392,277.0781,0.00011573,1.555e-05,0.0,0 STARLINK-4524,1 53396U 22097J   23031.12028006  .00001555  00000-0  11573-3 0  9990,2 53396  53.2157 172.9176 0001597  83.0392 277.0781 15.08844313 27380,6917.867,95.437,540.837,538.627,0.0
53396.0,STARLINK-4524,PAYLOAD,2023-01-31 17:11:40,15.08844107,0.0001602,53.2158,170.2414,84.5229,275.5946,0.00015507,2.181e-05,0.0,0 STARLINK-4524,1 53396U 22097J   23031.71644079  .00002181  00000-0  15507-3 0  9996,2 53396  53.2158 170.2414 0001602  84.5229 275.5946 15.08844107 26981,6917.868,95.437,540.841,538.625,0.0
53396.0,STARLINK-4524,PAYLOAD,2023-02-01 12:16:18,15.08819425,0.0001405,53.2168,166.6728,99.323,260.7921,0.00044708,6.831e-05,0.0,0 STARLINK-4524,1 53396U 22097J   23032.51132797  .00006831  00000-0  44708-3 0  9995,2 53396  53.2168 166.6728 0001405  99.3230 260.7921 15.08819425 27598,6917.943,95.439,540.78,538.836,0.0
53396.0,STARLINK-4524,PAYLOAD,2023-02-02 12:07:05,15.08837905,0.0001412,53.2169,162.2129,97.0239,263.0914,4.2959e-06,-2.2e-06,0.0,0 STARLINK-4524,1 53396U 22097J   23033.50492279 -.00000220  00000-0  42959-5 0  9994,2 53396  53.2169 162.2129 0001412  97.0239 263.0914 15.08837905 27746,6917.887,95.438,540.729,538.775,0.0
53396.0,STARLINK-4524,PAYLOAD,2023-02-03 11:57:53,15.08825885,0.0001352,53.217,157.7528,97.5397,262.5748,-1.4202e-06,-3.1e-06,0.0,0 STARLINK-4524,1 53396U 22097J   23034.49853327 -.00000310  00000-0 -14202-5 0  9999,2 53396  53.2170 157.7528 0001352  97.5397 262.5748 15.08825885 27409,6917.924,95.438,540.724,538.853,0.0
53396.0,STARLINK-4524,PAYLOAD,2023-02-04 07:02:30,15.08843179,0.000148,53.2163,154.1852,103.0557,257.06,-6.1746e-06,-3.86e-06,0.0,0 STARLINK-4524,1 53396U 22097J   23035.29340507 -.00000386  00000-0 -61746-5 0  9997,2 53396  53.2163 154.1852 0001480 103.0557 257.0600 15.08843179 27520,6917.871,95.437,540.76,538.712,0.0
53396.0,STARLINK-4524,PAYLOAD,2023-02-04 13:24:02,15.08844075,0.0001325,53.2165,152.9959,97.9527,262.1616,0.00016329,2.312e-05,0.0,0 STARLINK-4524,1 53396U 22097J   23035.55836027  .00002312  00000-0  16329-3 0  9997,2 53396  53.2165 152.9959 0001325  97.9527 262.1616 15.08844075 28051,6917.868,95.437,540.65,538.816,0.0
53396.0,STARLINK-4524,PAYLOAD,2023-02-04 14:59:25,15.08846268,0.0001318,53.2166,152.6983,100.3937,259.7204,0.00017968,2.573e-05,0.0,0 STARLINK-4524,1 53396U 22097J   23035.62459876  .00002573  00000-0  17968-3 0  9997,2 53396  53.2166 152.6983 0001318 100.3937 259.7204 15.08846268 28064,6917.861,95.437,540.638,538.814,0.0
53396.0,STARLINK-4524,PAYLOAD,2023-02-05 13:14:50,15.08833401,0.0001168,53.2166,148.5355,94.2927,265.8199,2.2142e-05,6.5e-07,0.0,0 STARLINK-4524,1 53396U 22097J   23036.55197496  .00000065  00000-0  22142-4 0  9992,2 53396  53.2166 148.5355 0001168  94.2927 265.8199 15.08833401 27711,6917.901,95.438,540.574,538.958,0.0
53396.0,STARLINK-4524,PAYLOAD,2023-02-05 14:50:13,15.08836563,0.000117,53.2166,148.2381,94.0813,266.0313,5.5757e-05,6e-06,0.0,0 STARLINK-4524,1 53396U 22097J   23036.61821280  .00000600  00000-0  55757-4 0  9997,2 53396  53.2166 148.2381 0001170  94.0813 266.0313 15.08836563 28211,6917.891,95.438,540.565,538.947,0.0
53396.0,STARLINK-4524,PAYLOAD,2023-02-06 00:22:31,15.0883907,0.0001164,53.2161,146.4539,93.5999,266.5127,7.692e-05,9.37e-06,0.0,0 STARLINK-4524,1 53396U 22097J   23037.01564801  .00000937  00000-0  76920-4 0  9993,2 53396  53.2161 146.4539 0001164  93.5999 266.5127 15.08839070 27788,6917.883,95.438,540.553,538.943,0.0
53396.0,STARLINK-4524,PAYLOAD,2023-02-06 13:05:36,15.08852294,0.0001168,53.2159,144.0753,87.0178,273.0948,0.00047845,7.337e-05,0.0,0 STARLINK-4524,1 53396U 22097J   23037.54556506  .00007337  00000-0  47845-3 0  9998,2 53396  53.2159 144.0753 0001168  87.0178 273.0948 15.08852294 28359,6917.843,95.437,540.516,538.9,0.0
53396.0,STARLINK-4524,PAYLOAD,2023-02-06 16:16:22,15.08864943,0.000118,53.2155,143.4805,86.1653,273.9474,0.0012154,0.00019121,0.0,0 STARLINK-4524,1 53396U 22097J   23037.67804387  .00019121  00000-0  12154-2 0  9993,2 53396  53.2155 143.4805 0001180  86.1653 273.9474 15.08864943 27882,6917.804,95.436,540.485,538.853,0.0
53396.0,STARLINK-4524,PAYLOAD,2023-02-07 06:34:51,15.08849661,0.0001088,53.2158,140.8046,100.9606,259.1509,0.00027527,4.097e-05,0.0,0 STARLINK-4524,1 53396U 22097J   23038.27420295  .00004097  00000-0  27527-3 0  9999,2 53396  53.2158 140.8046 0001088 100.9606 259.1509 15.08849661 27978,6917.851,95.437,540.469,538.963,0.0
53396.0,STARLINK-4524,PAYLOAD,2023-02-07 12:56:23,15.08865471,0.0001082,53.2156,139.6146,105.8355,254.2757,0.00085013,0.00013277,0.0,0 STARLINK-4524,1 53396U 22097J   23038.53915804  .00013277  00000-0  85013-3 0  9997,2 53396  53.2156 139.6146 0001082 105.8355 254.2757 15.08865471 28500,6917.803,95.436,540.416,538.919,0.0
53396.0,STARLINK-4524,PAYLOAD,2023-02-08 06:25:38,15.0884681,0.0002224,53.2161,136.345,85.9337,274.1909,0.0003967,6.032e-05,0.0,0 STARLINK-4524,1 53396U 22097J   23039.26780337  .00006032  00000-0  39670-3 0  9998,2 53396  53.2161 136.3450 0002224  85.9337 274.1909 15.08846810 28129,6917.86,95.437,541.263,538.186,0.0
